[{"OBJECT_NAME":"STARLINK-35213","OBJECT_ID":"2025-210S","EPOCH":"2026-03-09T21:31:24.523968","MEAN_MOTION":15.3019402,"ECCENTRICITY":0.00015849,"INCLINATION":53.16,"RA_OF_ASC_NODE":306.0561,"ARG_OF_PERICENTER":148.5233,"MEAN_ANOMALY":211.5862,"EPHEMERIS_TYPE":0,"CLASSIFICATION_TYPE":"U","NORAD_CAT_ID":65638,"ELEMENT_SET_NO":999,"REV_AT_EPOCH":2776,"BSTAR":0.00086406085,"MEAN_MOTION_DOT":0.00025314,"MEAN_MOTION_DDOT":0},{"OBJECT_NAME":"ELECTRON KICK STAGE R\/B","OBJECT_ID":"2025-061J","EPOCH":"2026-03-09T21:50:35.145600","MEAN_MOTION":15.31602074,"ECCENTRICITY":0.00402669,"INCLINATION":97.5479,"RA_OF_ASC_NODE":52.3854,"ARG_OF_PERICENTER":150.2628,"MEAN_ANOMALY":210.0914,"EPHEMERIS_TYPE":0,"CLASSIFICATION_TYPE":"U","NORAD_CAT_ID":63359,"ELEMENT_SET_NO":999,"REV_AT_EPOCH":5306,"BSTAR":0.0006963674,"MEAN_MOTION_DOT":0.00021749,"MEAN_MOTION_DDOT":0}]
